{
  "type": "FeatureCollection",
  "features": [
    {
      "type": "Feature",
      "properties": {
        "norad_id": 32451,
        "name": "FENGYUN 1C DEB",
        "group": "fengyun-1c-debris",
        "lat": 33.18672194463523,
        "lon": 145.74475078038716,
        "alt_km": 883.5958212564419,
        "timestamp": "2025-12-05T19:30:25.852145+00:00",
        "meta_object_name": "FENGYUN 1C DEB",
        "meta_object_id": "1999-025DBP",
        "meta_epoch": "2025-12-04T18:32:35.107584",
        "meta_mean_motion": 13.86510198,
        "meta_eccentricity": 0.01858286,
        "meta_inclination": 99.9695,
        "meta_ra_of_asc_node": 318.0312,
        "meta_arg_of_pericenter": 215.954,
        "meta_mean_anomaly": 142.8994,
        "meta_ephemeris_type": 0,
        "meta_classification_type": "U",
        "meta_norad_cat_id": 32451,
        "meta_element_set_no": 999,
        "meta_rev_at_epoch": 61654,
        "meta_bstar": 0.0037745112,
        "meta_mean_motion_dot": 4.97e-05,
        "meta_mean_motion_ddot": 0,
        "tle_line1": "1 32451U 99025DBP 25338.77262856  .00004970  00000+0  37745-2 0  9991",
        "tle_line2": "2 32451  99.9695 318.0312 0185828 215.9540 142.8994 13.86510198616541"
      },
      "geometry": {
        "type": "Point",
        "coordinates": [
          145.74475078038716,
          33.18672194463523
        ]
      }
    },
    {
      "type": "Feature",
      "properties": {
        "norad_id": 32453,
        "name": "FENGYUN 1C DEB",
        "group": "fengyun-1c-debris",
        "lat": 33.433301864317286,
        "lon": -116.93924290002386,
        "alt_km": 952.9938288816729,
        "timestamp": "2025-12-05T19:30:25.852155+00:00",
        "meta_object_name": "FENGYUN 1C DEB",
        "meta_object_id": "1999-025DBR",
        "meta_epoch": "2025-11-28T10:57:12.038976",
        "meta_mean_motion": 14.02200263,
        "meta_eccentricity": 0.00971069,
        "meta_inclination": 99.3715,
        "meta_ra_of_asc_node": 241.7597,
        "meta_arg_of_pericenter": 245.8452,
        "meta_mean_anomaly": 113.2535,
        "meta_ephemeris_type": 0,
        "meta_classification_type": "U",
        "meta_norad_cat_id": 32453,
        "meta_element_set_no": 999,
        "meta_rev_at_epoch": 93228,
        "meta_bstar": 0.00096884375,
        "meta_mean_motion_dot": 1.498e-05,
        "meta_mean_motion_ddot": 0,
        "tle_line1": "1 32453U 99025DBR 25332.45638934  .00001498  00000+0  96884-3 0  9998",
        "tle_line2": "2 32453  99.3715 241.7597 0097106 245.8452 113.2535 14.02200263932285"
      },
      "geometry": {
        "type": "Point",
        "coordinates": [
          -116.93924290002386,
          33.433301864317286
        ]
      }
    },
    {
      "type": "Feature",
      "properties": {
        "norad_id": 32455,
        "name": "FENGYUN 1C DEB",
        "group": "fengyun-1c-debris",
        "lat": -17.295219528048555,
        "lon": 173.80382577711126,
        "alt_km": 1098.6034718476567,
        "timestamp": "2025-12-05T19:30:25.852165+00:00",
        "meta_object_name": "FENGYUN 1C DEB",
        "meta_object_id": "1999-025DBT",
        "meta_epoch": "2025-11-30T08:31:26.630112",
        "meta_mean_motion": 13.92295541,
        "meta_eccentricity": 0.02377178,
        "meta_inclination": 101.7332,
        "meta_ra_of_asc_node": 163.1966,
        "meta_arg_of_pericenter": 176.0844,
        "meta_mean_anomaly": 184.2238,
        "meta_ephemeris_type": 0,
        "meta_classification_type": "U",
        "meta_norad_cat_id": 32455,
        "meta_element_set_no": 999,
        "meta_rev_at_epoch": 64243,
        "meta_bstar": 0.0029260204,
        "meta_mean_motion_dot": 4.672e-05,
        "meta_mean_motion_ddot": 0,
        "tle_line1": "1 32455U 99025DBT 25334.35516933  .00004672  00000+0  29260-2 0  9995",
        "tle_line2": "2 32455 101.7332 163.1966 0237717 176.0844 184.2238 13.92295541642435"
      },
      "geometry": {
        "type": "Point",
        "coordinates": [
          173.80382577711126,
          -17.295219528048555
        ]
      }
    },
    {
      "type": "Feature",
      "properties": {
        "norad_id": 32456,
        "name": "FENGYUN 1C DEB",
        "group": "fengyun-1c-debris",
        "lat": -4.784709182292504,
        "lon": -63.31374057705625,
        "alt_km": 956.9416692392751,
        "timestamp": "2025-12-05T19:30:25.852175+00:00",
        "meta_object_name": "FENGYUN 1C DEB",
        "meta_object_id": "1999-025DBU",
        "meta_epoch": "2025-11-28T15:45:38.634624",
        "meta_mean_motion": 13.3556135,
        "meta_eccentricity": 0.03790377,
        "meta_inclination": 103.6671,
        "meta_ra_of_asc_node": 108.2999,
        "meta_arg_of_pericenter": 253.9297,
        "meta_mean_anomaly": 101.9772,
        "meta_ephemeris_type": 0,
        "meta_classification_type": "U",
        "meta_norad_cat_id": 32456,
        "meta_element_set_no": 999,
        "meta_rev_at_epoch": 60428,
        "meta_bstar": 0.0020707074,
        "meta_mean_motion_dot": 1.513e-05,
        "meta_mean_motion_ddot": 0,
        "tle_line1": "1 32456U 99025DBU 25332.65669716  .00001513  00000+0  20707-2 0  9993",
        "tle_line2": "2 32456 103.6671 108.2999 0379037 253.9297 101.9772 13.35561350604289"
      },
      "geometry": {
        "type": "Point",
        "coordinates": [
          -63.31374057705625,
          -4.784709182292504
        ]
      }
    },
    {
      "type": "Feature",
      "properties": {
        "norad_id": 32458,
        "name": "FENGYUN 1C DEB",
        "group": "fengyun-1c-debris",
        "lat": -51.35241001669337,
        "lon": 10.537976978902448,
        "alt_km": 691.7751223664118,
        "timestamp": "2025-12-05T19:30:25.852185+00:00",
        "meta_object_name": "FENGYUN 1C DEB",
        "meta_object_id": "1999-025DBW",
        "meta_epoch": "2025-12-04T07:36:40.919328",
        "meta_mean_motion": 14.62058524,
        "meta_eccentricity": 0.004081,
        "meta_inclination": 99.0463,
        "meta_ra_of_asc_node": 357.4098,
        "meta_arg_of_pericenter": 39.6877,
        "meta_mean_anomaly": 320.7295,
        "meta_ephemeris_type": 0,
        "meta_classification_type": "U",
        "meta_norad_cat_id": 32458,
        "meta_element_set_no": 999,
        "meta_rev_at_epoch": 67666,
        "meta_bstar": 0.0039607,
        "meta_mean_motion_dot": 0.00020121,
        "meta_mean_motion_ddot": 0,
        "tle_line1": "1 32458U 99025DBW 25338.31714027  .00020121  00000+0  39607-2 0  9995",
        "tle_line2": "2 32458  99.0463 357.4098 0040810  39.6877 320.7295 14.62058524676660"
      },
      "geometry": {
        "type": "Point",
        "coordinates": [
          10.537976978902448,
          -51.35241001669337
        ]
      }
    },
    {
      "type": "Feature",
      "properties": {
        "norad_id": 32459,
        "name": "FENGYUN 1C DEB",
        "group": "fengyun-1c-debris",
        "lat": 41.301886030068054,
        "lon": -178.40990415324225,
        "alt_km": 689.7066332437917,
        "timestamp": "2025-12-05T19:30:25.852195+00:00",
        "meta_object_name": "FENGYUN 1C DEB",
        "meta_object_id": "1999-025DBX",
        "meta_epoch": "2025-12-01T11:39:14.293440",
        "meta_mean_motion": 14.42724223,
        "meta_eccentricity": 0.02128066,
        "meta_inclination": 98.3034,
        "meta_ra_of_asc_node": 350.0004,
        "meta_arg_of_pericenter": 220.4744,
        "meta_mean_anomaly": 138.0452,
        "meta_ephemeris_type": 0,
        "meta_classification_type": "U",
        "meta_norad_cat_id": 32459,
        "meta_element_set_no": 999,
        "meta_rev_at_epoch": 94388,
        "meta_bstar": 0.00065445905,
        "meta_mean_motion_dot": 2.812e-05,
        "meta_mean_motion_ddot": 0,
        "tle_line1": "1 32459U 99025DBX 25335.48558210  .00002812  00000+0  65446-3 0  9999",
        "tle_line2": "2 32459  98.3034 350.0004 0212806 220.4744 138.0452 14.42724223943882"
      },
      "geometry": {
        "type": "Point",
        "coordinates": [
          -178.40990415324225,
          41.301886030068054
        ]
      }
    },
    {
      "type": "Feature",
      "properties": {
        "norad_id": 32460,
        "name": "FENGYUN 1C DEB",
        "group": "fengyun-1c-debris",
        "lat": 66.71419300577277,
        "lon": 106.8146850416196,
        "alt_km": 887.0549693994863,
        "timestamp": "2025-12-05T19:30:25.852206+00:00",
        "meta_object_name": "FENGYUN 1C DEB",
        "meta_object_id": "1999-025DBY",
        "meta_epoch": "2025-12-03T03:14:00.944160",
        "meta_mean_motion": 13.89519462,
        "meta_eccentricity": 0.01856328,
        "meta_inclination": 98.0192,
        "meta_ra_of_asc_node": 123.6253,
        "meta_arg_of_pericenter": 150.9185,
        "meta_mean_anomaly": 210.247,
        "meta_ephemeris_type": 0,
        "meta_classification_type": "U",
        "meta_norad_cat_id": 32460,
        "meta_element_set_no": 999,
        "meta_rev_at_epoch": 65120,
        "meta_bstar": 0.0017619598,
        "meta_mean_motion_dot": 2.44e-05,
        "meta_mean_motion_ddot": 0,
        "tle_line1": "1 32460U 99025DBY 25337.13473315  .00002440  00000+0  17620-2 0  9994",
        "tle_line2": "2 32460  98.0192 123.6253 0185632 150.9185 210.2470 13.89519462651200"
      },
      "geometry": {
        "type": "Point",
        "coordinates": [
          106.8146850416196,
          66.71419300577277
        ]
      }
    }
  ]
}